{
  "type": "FeatureCollection",
  "features": [
    {
      "type": "Feature",
      "properties": {
        "norad_id": 66661,
        "name": "SNUGLITE-III",
        "group": "last-30-days",
        "lat": -57.68634276405024,
        "lon": 95.4328160689735,
        "alt_km": 585.8914150032651,
        "timestamp": "2025-12-26T20:30:44.699383+00:00",
        "meta_object_name": "SNUGLITE-III",
        "meta_object_id": "2025-274M",
        "meta_epoch": "2025-12-26T04:58:20.371008",
        "meta_mean_motion": 14.93164467,
        "meta_eccentricity": 0.00134792,
        "meta_inclination": 97.7402,
        "meta_ra_of_asc_node": 287.2134,
        "meta_arg_of_pericenter": 232.0718,
        "meta_mean_anomaly": 127.9284,
        "meta_ephemeris_type": 0,
        "meta_classification_type": "U",
        "meta_norad_cat_id": 66661,
        "meta_element_set_no": 999,
        "meta_rev_at_epoch": 441,
        "meta_bstar": 0.00028429475,
        "meta_mean_motion_dot": 2.915e-05,
        "meta_mean_motion_ddot": 0,
        "tle_line1": "1 66661U 25274M   25360.20718022  .00002915  00000+0  28429-3 0  9997",
        "tle_line2": "2 66661  97.7402 287.2134 0013479 232.0718 127.9284 14.93164467  4417"
      },
      "geometry": {
        "type": "Point",
        "coordinates": [
          95.4328160689735,
          -57.68634276405024
        ]
      }
    },
    {
      "type": "Feature",
      "properties": {
        "norad_id": 66662,
        "name": "2025-274N",
        "group": "last-30-days",
        "lat": -63.600759832677106,
        "lon": 91.95097330140179,
        "alt_km": 585.7371261357503,
        "timestamp": "2025-12-26T20:30:44.699392+00:00",
        "meta_object_name": "2025-274N",
        "meta_object_id": "2025-274N",
        "meta_epoch": "2025-12-26T12:59:12.244416",
        "meta_mean_motion": 14.9322337,
        "meta_eccentricity": 0.00139215,
        "meta_inclination": 97.7402,
        "meta_ra_of_asc_node": 287.5451,
        "meta_arg_of_pericenter": 230.5678,
        "meta_mean_anomaly": 129.431,
        "meta_ephemeris_type": 0,
        "meta_classification_type": "U",
        "meta_norad_cat_id": 66662,
        "meta_element_set_no": 999,
        "meta_rev_at_epoch": 446,
        "meta_bstar": 0.00030799558,
        "meta_mean_motion_dot": 3.168e-05,
        "meta_mean_motion_ddot": 0,
        "tle_line1": "1 66662U 25274N   25360.54111394  .00003168  00000+0  30800-3 0  9991",
        "tle_line2": "2 66662  97.7402 287.5451 0013921 230.5678 129.4310 14.93223370  4464"
      },
      "geometry": {
        "type": "Point",
        "coordinates": [
          91.95097330140179,
          -63.600759832677106
        ]
      }
    },
    {
      "type": "Feature",
      "properties": {
        "norad_id": 66663,
        "name": "KSLV-II R/B",
        "group": "last-30-days",
        "lat": -15.80019315538262,
        "lon": -69.72421541137669,
        "alt_km": 566.9488092398606,
        "timestamp": "2025-12-26T20:30:44.699403+00:00",
        "meta_object_name": "KSLV-II R/B",
        "meta_object_id": "2025-274P",
        "meta_epoch": "2025-12-23T05:59:25.426176",
        "meta_mean_motion": 14.97536982,
        "meta_eccentricity": 0.00600006,
        "meta_inclination": 97.7435,
        "meta_ra_of_asc_node": 284.4956,
        "meta_arg_of_pericenter": 282.7951,
        "meta_mean_anomaly": 76.657,
        "meta_ephemeris_type": 0,
        "meta_classification_type": "U",
        "meta_norad_cat_id": 66663,
        "meta_element_set_no": 999,
        "meta_rev_at_epoch": 398,
        "meta_bstar": 0.0011394408,
        "meta_mean_motion_dot": 0.00013749,
        "meta_mean_motion_ddot": 0,
        "tle_line1": "1 66663U 25274P   25357.24959984  .00013749  00000+0  11394-2 0  9992",
        "tle_line2": "2 66663  97.7435 284.4956 0060000 282.7951  76.6570 14.97536982  3987"
      },
      "geometry": {
        "type": "Point",
        "coordinates": [
          -69.72421541137669,
          -15.80019315538262
        ]
      }
    },
    {
      "type": "Feature",
      "properties": {
        "norad_id": 66664,
        "name": "SOYUZ-MS 28",
        "group": "last-30-days",
        "lat": -10.690175964046475,
        "lon": 63.97122010309093,
        "alt_km": 417.48164548558816,
        "timestamp": "2025-12-26T20:30:44.699412+00:00",
        "meta_object_name": "SOYUZ-MS 28",
        "meta_object_id": "2025-275A",
        "meta_epoch": "2025-12-26T12:50:01.193856",
        "meta_mean_motion": 15.49844261,
        "meta_eccentricity": 0.00032307,
        "meta_inclination": 51.632,
        "meta_ra_of_asc_node": 74.1581,
        "meta_arg_of_pericenter": 305.5588,
        "meta_mean_anomaly": 54.5099,
        "meta_ephemeris_type": 0,
        "meta_classification_type": "U",
        "meta_norad_cat_id": 66664,
        "meta_element_set_no": 999,
        "meta_rev_at_epoch": 128,
        "meta_bstar": 0.00025381537,
        "meta_mean_motion_dot": 0.00013978,
        "meta_mean_motion_ddot": 0,
        "tle_line1": "1 66664U 25275A   25360.53473604  .00013978  00000+0  25382-3 0  9997",
        "tle_line2": "2 66664  51.6320  74.1581 0003230 305.5588  54.5099 15.49844261  1282"
      },
      "geometry": {
        "type": "Point",
        "coordinates": [
          63.97122010309093,
          -10.690175964046475
        ]
      }
    },
    {
      "type": "Feature",
      "properties": {
        "norad_id": 66666,
        "name": "FORMOSAT-8A",
        "group": "last-30-days",
        "lat": 67.40611903429915,
        "lon": -88.54957375537222,
        "alt_km": 558.2374797252342,
        "timestamp": "2025-12-26T20:30:44.699421+00:00",
        "meta_object_name": "FORMOSAT-8A",
        "meta_object_id": "2025-276A",
        "meta_epoch": "2025-12-26T15:12:58.247136",
        "meta_mean_motion": 15.00368206,
        "meta_eccentricity": 0.00041078,
        "meta_inclination": 97.6575,
        "meta_ra_of_asc_node": 72.3697,
        "meta_arg_of_pericenter": 182.2215,
        "meta_mean_anomaly": 177.8991,
        "meta_ephemeris_type": 0,
        "meta_classification_type": "U",
        "meta_norad_cat_id": 66666,
        "meta_element_set_no": 999,
        "meta_rev_at_epoch": 417,
        "meta_bstar": 0.00033091827,
        "meta_mean_motion_dot": 4.097e-05,
        "meta_mean_motion_ddot": 0,
        "tle_line1": "1 66666U 25276A   25360.63400749  .00004097  00000+0  33092-3 0  9990",
        "tle_line2": "2 66666  97.6575  72.3697 0004107 182.2215 177.8991 15.00368206  4173"
      },
      "geometry": {
        "type": "Point",
        "coordinates": [
          -88.54957375537222,
          67.40611903429915
        ]
      }
    },
    {
      "type": "Feature",
      "properties": {
        "norad_id": 66667,
        "name": "PELICAN-5",
        "group": "last-30-days",
        "lat": 45.067815012781786,
        "lon": 64.85753921843576,
        "alt_km": 510.6944524676128,
        "timestamp": "2025-12-26T20:30:44.699430+00:00",
        "meta_object_name": "PELICAN-5",
        "meta_object_id": "2025-276B",
        "meta_epoch": "2025-12-26T13:58:57.186912",
        "meta_mean_motion": 15.17624853,
        "meta_eccentricity": 0.00024725,
        "meta_inclination": 97.4406,
        "meta_ra_of_asc_node": 72.1175,
        "meta_arg_of_pericenter": 197.5491,
        "meta_mean_anomaly": 162.5657,
        "meta_ephemeris_type": 0,
        "meta_classification_type": "U",
        "meta_norad_cat_id": 66667,
        "meta_element_set_no": 999,
        "meta_rev_at_epoch": 422,
        "meta_bstar": 0.0002382227,
        "meta_mean_motion_dot": 4.725e-05,
        "meta_mean_motion_ddot": 0,
        "tle_line1": "1 66667U 25276B   25360.58260633  .00004725  00000+0  23822-3 0  9999",
        "tle_line2": "2 66667  97.4406  72.1175 0002472 197.5491 162.5657 15.17624853  4229"
      },
      "geometry": {
        "type": "Point",
        "coordinates": [
          64.85753921843576,
          45.067815012781786
        ]
      }
    },
    {
      "type": "Feature",
      "properties": {
        "norad_id": 66668,
        "name": "TRANSPORTER-15C",
        "group": "last-30-days",
        "lat": -13.107801442903881,
        "lon": 74.05245368159044,
        "alt_km": 504.24315752178427,
        "timestamp": "2025-12-26T20:30:44.699441+00:00",
        "meta_object_name": "TRANSPORTER-15C",
        "meta_object_id": "2025-276C",
        "meta_epoch": "2025-12-26T12:40:51.383136",
        "meta_mean_motion": 15.21988406,
        "meta_eccentricity": 0.00161782,
        "meta_inclination": 97.4332,
        "meta_ra_of_asc_node": 71.9879,
        "meta_arg_of_pericenter": 258.9437,
        "meta_mean_anomaly": 100.9979,
        "meta_ephemeris_type": 0,
        "meta_classification_type": "U",
        "meta_norad_cat_id": 66668,
        "meta_element_set_no": 999,
        "meta_rev_at_epoch": 421,
        "meta_bstar": 0.00071782067,
        "meta_mean_motion_dot": 0.00016393,
        "meta_mean_motion_ddot": 0,
        "tle_line1": "1 66668U 25276C   25360.52837249  .00016393  00000+0  71782-3 0  9999",
        "tle_line2": "2 66668  97.4332  71.9879 0016178 258.9437 100.9979 15.21988406  4210"
      },
      "geometry": {
        "type": "Point",
        "coordinates": [
          74.05245368159044,
          -13.107801442903881
        ]
      }
    }
  ]
}